{
  "type": "FeatureCollection",
  "features": [
    {
      "type": "Feature",
      "properties": {
        "norad_id": 31307,
        "name": "GALAXY 17 (G-17)",
        "group": "intelsat",
        "lat": -0.04752052650503069,
        "lon": 80.76508545419566,
        "alt_km": 35810.55962007519,
        "timestamp": "2025-12-10T05:46:13.465173+00:00",
        "meta_object_name": "GALAXY 17 (G-17)",
        "meta_object_id": "2007-016B",
        "meta_epoch": "2025-12-09T12:27:47.151072",
        "meta_mean_motion": 1.00272575,
        "meta_eccentricity": 0.00060579,
        "meta_inclination": 2.4919,
        "meta_ra_of_asc_node": 82.3182,
        "meta_arg_of_pericenter": 162.3452,
        "meta_mean_anomaly": 295.7984,
        "meta_ephemeris_type": 0,
        "meta_classification_type": "U",
        "meta_norad_cat_id": 31307,
        "meta_element_set_no": 999,
        "meta_rev_at_epoch": 6790,
        "meta_bstar": 0,
        "meta_mean_motion_dot": -2.04e-06,
        "meta_mean_motion_ddot": 0,
        "tle_line1": "1 31307U 07016B   25343.51929573 -.00000204  00000+0  00000+0 0  9991",
        "tle_line2": "2 31307   2.4919  82.3182 0006057 162.3452 295.7984  1.00272575 67901"
      },
      "geometry": {
        "type": "Point",
        "coordinates": [
          80.76508545419566,
          -0.04752052650503069
        ]
      }
    },
    {
      "type": "Feature",
      "properties": {
        "norad_id": 31862,
        "name": "DIRECTV 10",
        "group": "intelsat",
        "lat": -0.003963983915064143,
        "lon": 62.982844608295586,
        "alt_km": 35788.02526495269,
        "timestamp": "2025-12-10T05:46:13.465185+00:00",
        "meta_object_name": "DIRECTV 10",
        "meta_object_id": "2007-032A",
        "meta_epoch": "2025-12-09T14:47:45.651840",
        "meta_mean_motion": 1.00270135,
        "meta_eccentricity": 4.26e-05,
        "meta_inclination": 0.0152,
        "meta_ra_of_asc_node": 159.7626,
        "meta_arg_of_pericenter": 48.0937,
        "meta_mean_anomaly": 349.9052,
        "meta_ephemeris_type": 0,
        "meta_classification_type": "U",
        "meta_norad_cat_id": 31862,
        "meta_element_set_no": 999,
        "meta_rev_at_epoch": 4369,
        "meta_bstar": 0,
        "meta_mean_motion_dot": -1e-06,
        "meta_mean_motion_ddot": 0,
        "tle_line1": "1 31862U 07032A   25343.61650060 -.00000100  00000+0  00000+0 0  9993",
        "tle_line2": "2 31862   0.0152 159.7626 0000426  48.0937 349.9052  1.00270135 43692"
      },
      "geometry": {
        "type": "Point",
        "coordinates": [
          62.982844608295586,
          -0.003963983915064143
        ]
      }
    },
    {
      "type": "Feature",
      "properties": {
        "norad_id": 32253,
        "name": "INTELSAT 11 (IS-11)",
        "group": "intelsat",
        "lat": -1.8968620526337256,
        "lon": 42.53901287998701,
        "alt_km": 36168.62244290423,
        "timestamp": "2025-12-10T05:46:13.465196+00:00",
        "meta_object_name": "INTELSAT 11 (IS-11)",
        "meta_object_id": "2007-044B",
        "meta_epoch": "2025-12-09T14:42:38.643264",
        "meta_mean_motion": 0.99047626,
        "meta_eccentricity": 0.0009092,
        "meta_inclination": 3.0722,
        "meta_ra_of_asc_node": 81.0087,
        "meta_arg_of_pericenter": 164.7081,
        "meta_mean_anomaly": 292.9928,
        "meta_ephemeris_type": 0,
        "meta_classification_type": "U",
        "meta_norad_cat_id": 32253,
        "meta_element_set_no": 999,
        "meta_rev_at_epoch": 6657,
        "meta_bstar": 0,
        "meta_mean_motion_dot": 7.4e-07,
        "meta_mean_motion_ddot": 0,
        "tle_line1": "1 32253U 07044B   25343.61294726  .00000074  00000+0  00000+0 0  9993",
        "tle_line2": "2 32253   3.0722  81.0087 0009092 164.7081 292.9928  0.99047626 66570"
      },
      "geometry": {
        "type": "Point",
        "coordinates": [
          42.53901287998701,
          -1.8968620526337256
        ]
      }
    },
    {
      "type": "Feature",
      "properties": {
        "norad_id": 32388,
        "name": "HORIZONS-2",
        "group": "intelsat",
        "lat": 0.3499296082369844,
        "lon": 91.98033285260851,
        "alt_km": 35807.701764974714,
        "timestamp": "2025-12-10T05:46:13.465208+00:00",
        "meta_object_name": "HORIZONS-2",
        "meta_object_id": "2007-063B",
        "meta_epoch": "2025-12-09T12:34:03.796320",
        "meta_mean_motion": 1.00270503,
        "meta_eccentricity": 0.00050202,
        "meta_inclination": 2.1132,
        "meta_ra_of_asc_node": 82.9918,
        "meta_arg_of_pericenter": 187.0359,
        "meta_mean_anomaly": 283.219,
        "meta_ephemeris_type": 0,
        "meta_classification_type": "U",
        "meta_norad_cat_id": 32388,
        "meta_element_set_no": 999,
        "meta_rev_at_epoch": 6591,
        "meta_bstar": 0,
        "meta_mean_motion_dot": -2.51e-06,
        "meta_mean_motion_ddot": 0,
        "tle_line1": "1 32388U 07063B   25343.52365505 -.00000251  00000+0  00000+0 0  9995",
        "tle_line2": "2 32388   2.1132  82.9918 0005020 187.0359 283.2190  1.00270503 65916"
      },
      "geometry": {
        "type": "Point",
        "coordinates": [
          91.98033285260851,
          0.3499296082369844
        ]
      }
    },
    {
      "type": "Feature",
      "properties": {
        "norad_id": 32729,
        "name": "DIRECTV 11",
        "group": "intelsat",
        "lat": 0.010566044300464561,
        "lon": 66.57571309204998,
        "alt_km": 35787.28137426439,
        "timestamp": "2025-12-10T05:46:13.465220+00:00",
        "meta_object_name": "DIRECTV 11",
        "meta_object_id": "2008-013A",
        "meta_epoch": "2025-12-09T10:14:01.462848",
        "meta_mean_motion": 1.0027202,
        "meta_eccentricity": 4.14e-05,
        "meta_inclination": 0.0295,
        "meta_ra_of_asc_node": 191.9729,
        "meta_arg_of_pericenter": 10.0555,
        "meta_mean_anomaly": 290.7006,
        "meta_ephemeris_type": 0,
        "meta_classification_type": "U",
        "meta_norad_cat_id": 32729,
        "meta_element_set_no": 999,
        "meta_rev_at_epoch": 4369,
        "meta_bstar": 0,
        "meta_mean_motion_dot": -1.23e-06,
        "meta_mean_motion_ddot": 0,
        "tle_line1": "1 32729U 08013A   25343.42640582 -.00000123  00000+0  00000+0 0  9998",
        "tle_line2": "2 32729   0.0295 191.9729 0000414  10.0555 290.7006  1.00272020 43694"
      },
      "geometry": {
        "type": "Point",
        "coordinates": [
          66.57571309204998,
          0.010566044300464561
        ]
      }
    },
    {
      "type": "Feature",
      "properties": {
        "norad_id": 32951,
        "name": "GALAXY 18 (G-18)",
        "group": "intelsat",
        "lat": 0.023837648025338307,
        "lon": 42.7893966485086,
        "alt_km": 35796.27891990355,
        "timestamp": "2025-12-10T05:46:13.465231+00:00",
        "meta_object_name": "GALAXY 18 (G-18)",
        "meta_object_id": "2008-024A",
        "meta_epoch": "2025-12-09T14:42:01.200960",
        "meta_mean_motion": 1.00272636,
        "meta_eccentricity": 0.0003167,
        "meta_inclination": 0.0115,
        "meta_ra_of_asc_node": 295.632,
        "meta_arg_of_pericenter": 325.775,
        "meta_mean_anomaly": 274.6906,
        "meta_ephemeris_type": 0,
        "meta_classification_type": "U",
        "meta_norad_cat_id": 32951,
        "meta_element_set_no": 999,
        "meta_rev_at_epoch": 4395,
        "meta_bstar": 0,
        "meta_mean_motion_dot": 2.7e-07,
        "meta_mean_motion_ddot": 0,
        "tle_line1": "1 32951U 08024A   25343.61251390  .00000027  00000+0  00000+0 0  9995",
        "tle_line2": "2 32951   0.0115 295.6320 0003167 325.7750 274.6906  1.00272636 43954"
      },
      "geometry": {
        "type": "Point",
        "coordinates": [
          42.7893966485086,
          0.023837648025338307
        ]
      }
    },
    {
      "type": "Feature",
      "properties": {
        "norad_id": 33153,
        "name": "INTELSAT 25 (IS-25)",
        "group": "intelsat",
        "lat": 1.7501342856625077,
        "lon": 134.20715661032568,
        "alt_km": 35801.87795097584,
        "timestamp": "2025-12-10T05:46:13.465243+00:00",
        "meta_object_name": "INTELSAT 25 (IS-25)",
        "meta_object_id": "2008-034A",
        "meta_epoch": "2025-12-09T11:42:40.881024",
        "meta_mean_motion": 1.00270303,
        "meta_eccentricity": 0.0005391,
        "meta_inclination": 2.2195,
        "meta_ra_of_asc_node": 82.6821,
        "meta_arg_of_pericenter": 184.562,
        "meta_mean_anomaly": 315.4069,
        "meta_ephemeris_type": 0,
        "meta_classification_type": "U",
        "meta_norad_cat_id": 33153,
        "meta_element_set_no": 999,
        "meta_rev_at_epoch": 6379,
        "meta_bstar": 0,
        "meta_mean_motion_dot": -2.22e-06,
        "meta_mean_motion_ddot": 0,
        "tle_line1": "1 33153U 08034A   25343.48797316 -.00000222  00000+0  00000+0 0  9997",
        "tle_line2": "2 33153   2.2195  82.6821 0005391 184.5620 315.4069  1.00270303 63796"
      },
      "geometry": {
        "type": "Point",
        "coordinates": [
          134.20715661032568,
          1.7501342856625077
        ]
      }
    }
  ]
}